[{"OBJECT_NAME":"QIANFAN-18","OBJECT_ID":"2024-140T","EPOCH":"2026-03-04T02:37:35.836320","MEAN_MOTION":13.51003336,"ECCENTRICITY":0.0013255,"INCLINATION":88.9724,"RA_OF_ASC_NODE":290.5568,"ARG_OF_PERICENTER":319.705,"MEAN_ANOMALY":40.3118,"EPHEMERIS_TYPE":0,"CLASSIFICATION_TYPE":"U","NORAD_CAT_ID":60396,"ELEMENT_SET_NO":999,"REV_AT_EPOCH":7851,"BSTAR":0.00015266,"MEAN_MOTION_DOT":1.11e-6,"MEAN_MOTION_DDOT":0},{"OBJECT_NAME":"QIANFAN-19","OBJECT_ID":"2024-185A","EPOCH":"2026-03-04T03:48:03.851424","MEAN_MOTION":14.14385572,"ECCENTRICITY":0.0008732,"INCLINATION":88.9757,"RA_OF_ASC_NODE":68.5929,"ARG_OF_PERICENTER":54.5911,"MEAN_ANOMALY":305.609,"EPHEMERIS_TYPE":0,"CLASSIFICATION_TYPE":"U","NORAD_CAT_ID":61552,"ELEMENT_SET_NO":999,"REV_AT_EPOCH":8117,"BSTAR":0.00035485,"MEAN_MOTION_DOT":6.93e-6,"MEAN_MOTION_DDOT":0},{"OBJECT_NAME":"QIANFAN-20","OBJECT_ID":"2024-185B","EPOCH":"2026-03-04T03:36:57.481056","MEAN_MOTION":14.0893187,"ECCENTRICITY":0.0007905,"INCLINATION":88.9755,"RA_OF_ASC_NODE":68.9999,"ARG_OF_PERICENTER":86.0659,"MEAN_ANOMALY":274.1428,"EPHEMERIS_TYPE":0,"CLASSIFICATION_TYPE":"U","NORAD_CAT_ID":61553,"ELEMENT_SET_NO":999,"REV_AT_EPOCH":8095,"BSTAR":0.00037707,"MEAN_MOTION_DOT":6.66e-6,"MEAN_MOTION_DDOT":0},{"OBJECT_NAME":"QIANFAN-21","OBJECT_ID":"2024-185C","EPOCH":"2026-03-04T03:04:57.788832","MEAN_MOTION":14.22726109,"ECCENTRICITY":0.0012972,"INCLINATION":88.9675,"RA_OF_ASC_NODE":67.4274,"ARG_OF_PERICENTER":96.8663,"MEAN_ANOMALY":263.4004,"EPHEMERIS_TYPE":0,"CLASSIFICATION_TYPE":"U","NORAD_CAT_ID":61554,"ELEMENT_SET_NO":999,"REV_AT_EPOCH":8154,"BSTAR":0.00038396,"MEAN_MOTION_DOT":8.75e-6,"MEAN_MOTION_DDOT":0},{"OBJECT_NAME":"QIANFAN-22","OBJECT_ID":"2024-185D","EPOCH":"2026-03-04T03:13:12.874656","MEAN_MOTION":13.86337979,"ECCENTRICITY":0.0008546,"INCLINATION":88.9739,"RA_OF_ASC_NODE":70.312,"ARG_OF_PERICENTER":103.5432,"MEAN_ANOMALY":256.6692,"EPHEMERIS_TYPE":0,"CLASSIFICATION_TYPE":"U","NORAD_CAT_ID":61555,"ELEMENT_SET_NO":999,"REV_AT_EPOCH":8021,"BSTAR":0.00027488,"MEAN_MOTION_DOT":3.31e-6,"MEAN_MOTION_DDOT":0},{"OBJECT_NAME":"QIANFAN-23","OBJECT_ID":"2024-185E","EPOCH":"2026-03-04T03:50:48.634368","MEAN_MOTION":14.16390533,"ECCENTRICITY":0.0009641,"INCLINATION":88.975,"RA_OF_ASC_NODE":68.364,"ARG_OF_PERICENTER":62.5511,"MEAN_ANOMALY":297.6656,"EPHEMERIS_TYPE":0,"CLASSIFICATION_TYPE":"U","NORAD_CAT_ID":61556,"ELEMENT_SET_NO":999,"REV_AT_EPOCH":8127,"BSTAR":0.00037063,"MEAN_MOTION_DOT":7.5e-6,"MEAN_MOTION_DDOT":0},{"OBJECT_NAME":"QIANFAN-24","OBJECT_ID":"2024-185F","EPOCH":"2026-03-04T03:11:14.174880","MEAN_MOTION":14.23929596,"ECCENTRICITY":0.0010745,"INCLINATION":88.9733,"RA_OF_ASC_NODE":67.6391,"ARG_OF_PERICENTER":43.0432,"MEAN_ANOMALY":317.1599,"EPHEMERIS_TYPE":0,"CLASSIFICATION_TYPE":"U","NORAD_CAT_ID":61557,"ELEMENT_SET_NO":999,"REV_AT_EPOCH":8160,"BSTAR":0.00044406,"MEAN_MOTION_DOT":1.032e-5,"MEAN_MOTION_DDOT":0},{"OBJECT_NAME":"QIANFAN-25","OBJECT_ID":"2024-185G","EPOCH":"2026-03-04T03:24:53.247744","MEAN_MOTION":14.05993676,"ECCENTRICITY":0.001192,"INCLINATION":88.9747,"RA_OF_ASC_NODE":68.9584,"ARG_OF_PERICENTER":69.3441,"MEAN_ANOMALY":290.9018,"EPHEMERIS_TYPE":0,"CLASSIFICATION_TYPE":"U","NORAD_CAT_ID":61558,"ELEMENT_SET_NO":999,"REV_AT_EPOCH":8094,"BSTAR":0.00035451,"MEAN_MOTION_DOT":5.95e-6,"MEAN_MOTION_DDOT":0},{"OBJECT_NAME":"QIANFAN-26","OBJECT_ID":"2024-185H","EPOCH":"2026-03-04T03:46:58.452672","MEAN_MOTION":13.77860725,"ECCENTRICITY":0.0007612,"INCLINATION":88.9744,"RA_OF_ASC_NODE":70.9471,"ARG_OF_PERICENTER":116.1759,"MEAN_ANOMALY":244.019,"EPHEMERIS_TYPE":0,"CLASSIFICATION_TYPE":"U","NORAD_CAT_ID":61559,"ELEMENT_SET_NO":999,"REV_AT_EPOCH":7988,"BSTAR":0.00030589,"MEAN_MOTION_DOT":3.19e-6,"MEAN_MOTION_DDOT":0},{"OBJECT_NAME":"QIANFAN-27","OBJECT_ID":"2024-185J","EPOCH":"2026-03-04T03:18:34.178112","MEAN_MOTION":14.27441688,"ECCENTRICITY":0.0008827,"INCLINATION":88.9747,"RA_OF_ASC_NODE":67.3823,"ARG_OF_PERICENTER":36.5305,"MEAN_ANOMALY":323.6489,"EPHEMERIS_TYPE":0,"CLASSIFICATION_TYPE":"U","NORAD_CAT_ID":61560,"ELEMENT_SET_NO":999,"REV_AT_EPOCH":8177,"BSTAR":0.00029945,"MEAN_MOTION_DOT":7.49e-6,"MEAN_MOTION_DDOT":0},{"OBJECT_NAME":"QIANFAN-28","OBJECT_ID":"2024-185K","EPOCH":"2026-03-04T03:33:25.910784","MEAN_MOTION":14.28209429,"ECCENTRICITY":0.0008431,"INCLINATION":88.9762,"RA_OF_ASC_NODE":67.3882,"ARG_OF_PERICENTER":37.421,"MEAN_ANOMALY":322.757,"EPHEMERIS_TYPE":0,"CLASSIFICATION_TYPE":"U","NORAD_CAT_ID":61561,"ELEMENT_SET_NO":999,"REV_AT_EPOCH":8179,"BSTAR":0.00047286,"MEAN_MOTION_DOT":1.192e-5,"MEAN_MOTION_DDOT":0},{"OBJECT_NAME":"QIANFAN-29","OBJECT_ID":"2024-185L","EPOCH":"2026-03-04T03:11:24.740736","MEAN_MOTION":13.5104298,"ECCENTRICITY":0.0010228,"INCLINATION":88.9717,"RA_OF_ASC_NODE":72.884,"ARG_OF_PERICENTER":163.7433,"MEAN_ANOMALY":196.4048,"EPHEMERIS_TYPE":0,"CLASSIFICATION_TYPE":"U","NORAD_CAT_ID":61562,"ELEMENT_SET_NO":999,"REV_AT_EPOCH":7878,"BSTAR":0.00032482,"MEAN_MOTION_DOT":2.22e-6,"MEAN_MOTION_DDOT":0},{"OBJECT_NAME":"QIANFAN-30","OBJECT_ID":"2024-185M","EPOCH":"2026-03-04T02:17:17.131488","MEAN_MOTION":13.50018129,"ECCENTRICITY":0.0008553,"INCLINATION":88.9737,"RA_OF_ASC_NODE":72.4445,"ARG_OF_PERICENTER":147.8702,"MEAN_ANOMALY":212.2972,"EPHEMERIS_TYPE":0,"CLASSIFICATION_TYPE":"U","NORAD_CAT_ID":61563,"ELEMENT_SET_NO":999,"REV_AT_EPOCH":7904,"BSTAR":0.00031665,"MEAN_MOTION_DOT":2.13e-6,"MEAN_MOTION_DDOT":0},{"OBJECT_NAME":"QIANFAN-31","OBJECT_ID":"2024-185N","EPOCH":"2026-03-04T02:26:33.088704","MEAN_MOTION":13.58002437,"ECCENTRICITY":0.0008228,"INCLINATION":88.9722,"RA_OF_ASC_NODE":72.1162,"ARG_OF_PERICENTER":139.2971,"MEAN_ANOMALY":220.88,"EPHEMERIS_TYPE":0,"CLASSIFICATION_TYPE":"U","NORAD_CAT_ID":61564,"ELEMENT_SET_NO":999,"REV_AT_EPOCH":7920,"BSTAR":0.00030734,"MEAN_MOTION_DOT":2.34e-6,"MEAN_MOTION_DDOT":0},{"OBJECT_NAME":"QIANFAN-32","OBJECT_ID":"2024-185P","EPOCH":"2026-03-04T02:13:45.825600","MEAN_MOTION":13.50763564,"ECCENTRICITY":0.0009573,"INCLINATION":88.9781,"RA_OF_ASC_NODE":72.6039,"ARG_OF_PERICENTER":177.0346,"MEAN_ANOMALY":183.0864,"EPHEMERIS_TYPE":0,"CLASSIFICATION_TYPE":"U","NORAD_CAT_ID":61565,"ELEMENT_SET_NO":999,"REV_AT_EPOCH":7902,"BSTAR":0.00027715,"MEAN_MOTION_DOT":1.9e-6,"MEAN_MOTION_DDOT":0},{"OBJECT_NAME":"QIANFAN-33","OBJECT_ID":"2024-185Q","EPOCH":"2026-03-04T03:40:02.752032","MEAN_MOTION":13.96621623,"ECCENTRICITY":0.0009317,"INCLINATION":88.9735,"RA_OF_ASC_NODE":69.7139,"ARG_OF_PERICENTER":77.1474,"MEAN_ANOMALY":283.0743,"EPHEMERIS_TYPE":0,"CLASSIFICATION_TYPE":"U","NORAD_CAT_ID":61566,"ELEMENT_SET_NO":999,"REV_AT_EPOCH":8052,"BSTAR":0.00037735,"MEAN_MOTION_DOT":5.36e-6,"MEAN_MOTION_DDOT":0},{"OBJECT_NAME":"QIANFAN-34","OBJECT_ID":"2024-185R","EPOCH":"2026-03-04T03:23:00.805056","MEAN_MOTION":14.02381678,"ECCENTRICITY":0.0008276,"INCLINATION":88.9712,"RA_OF_ASC_NODE":69.1706,"ARG_OF_PERICENTER":80.8854,"MEAN_ANOMALY":279.3262,"EPHEMERIS_TYPE":0,"CLASSIFICATION_TYPE":"U","NORAD_CAT_ID":61567,"ELEMENT_SET_NO":999,"REV_AT_EPOCH":8076,"BSTAR":0.00036716,"MEAN_MOTION_DOT":5.77e-6,"MEAN_MOTION_DDOT":0}]
