QIANFAN-18              
1 60396U 24140T   26063.10944255  .00000111  00000+0  15266-3 0  9997
2 60396  88.9724 290.5568 0013255 319.7050  40.3118 13.51003336 78513
QIANFAN-19              
1 61552U 24185A   26063.15837791  .00000693  00000+0  35485-3 0  9992
2 61552  88.9757  68.5929 0008732  54.5911 305.6090 14.14385572 81179
QIANFAN-20              
1 61553U 24185B   26063.15066529  .00000666  00000+0  37707-3 0  9995
2 61553  88.9755  68.9999 0007905  86.0659 274.1428 14.08931870 80950
QIANFAN-21              
1 61554U 24185C   26063.12844663  .00000875  00000+0  38396-3 0  9993
2 61554  88.9675  67.4274 0012972  96.8663 263.4004 14.22726109 81546
QIANFAN-22              
1 61555U 24185D   26063.13417679  .00000331  00000+0  27488-3 0  9995
2 61555  88.9739  70.3120 0008546 103.5432 256.6692 13.86337979 80215
QIANFAN-23              
1 61556U 24185E   26063.16028512  .00000750  00000+0  37063-3 0  9998
2 61556  88.9750  68.3640 0009641  62.5511 297.6656 14.16390533 81273
QIANFAN-24              
1 61557U 24185F   26063.13280295  .00001032  00000+0  44406-3 0  9997
2 61557  88.9733  67.6391 0010745  43.0432 317.1599 14.23929596 81609
QIANFAN-25              
1 61558U 24185G   26063.14228296  .00000595  00000+0  35451-3 0  9995
2 61558  88.9747  68.9584 0011920  69.3441 290.9018 14.05993676 80940
QIANFAN-26              
1 61559U 24185H   26063.15762098  .00000319  00000+0  30589-3 0  9991
2 61559  88.9744  70.9471 0007612 116.1759 244.0190 13.77860725 79880
QIANFAN-27              
1 61560U 24185J   26063.13789558  .00000749  00000+0  29945-3 0  9992
2 61560  88.9747  67.3823 0008827  36.5305 323.6489 14.27441688 81772
QIANFAN-28              
1 61561U 24185K   26063.14821656  .00001192  00000+0  47286-3 0  9991
2 61561  88.9762  67.3882 0008431  37.4210 322.7570 14.28209429 81790
QIANFAN-29              
1 61562U 24185L   26063.13292524  .00000222  00000+0  32482-3 0  9992
2 61562  88.9717  72.8840 0010228 163.7433 196.4048 13.51042980 78786
QIANFAN-30              
1 61563U 24185M   26063.09533717  .00000213  00000+0  31665-3 0  9992
2 61563  88.9737  72.4445 0008553 147.8702 212.2972 13.50018129 79046
QIANFAN-31              
1 61564U 24185N   26063.10177186  .00000234  00000+0  30734-3 0  9998
2 61564  88.9722  72.1162 0008228 139.2971 220.8800 13.58002437 79202
QIANFAN-32              
1 61565U 24185P   26063.09289150  .00000190  00000+0  27715-3 0  9998
2 61565  88.9781  72.6039 0009573 177.0346 183.0864 13.50763564 79023
QIANFAN-33              
1 61566U 24185Q   26063.15280963  .00000536  00000+0  37735-3 0  9996
2 61566  88.9735  69.7139 0009317  77.1474 283.0743 13.96621623 80522
QIANFAN-34              
1 61567U 24185R   26063.14098154  .00000577  00000+0  36716-3 0  9998
2 61567  88.9712  69.1706 0008276  80.8854 279.3262 14.02381678 80769
